STARLINK-32788          
1 62502U 25003R   26068.95821560  .00023103  00000+0  84614-3 0  9997
2 62502  42.9941 287.3671 0000703   7.8344 352.2518 15.27590980 66594
TEVEL2-5                
1 63214U 25052E   26068.96660006  .00021339  00000+0  71765-3 0  9991
2 63214  97.4013 325.3677 0004700  95.3936 264.7842 15.30817434 54919
